{"fetched_at":"2026-04-05T12:57:33Z","count":17389,"tles":[{"name":"O3B FM13","line1":"1 43234U 18024D   26084.69755415 -.00000024  00000+0  00000+0 0  9998","line2":"2 43234   0.0470 335.8508 0003967 348.6026  35.5167  5.00115556146887","category":"Other"}]}